{
  "type": "FeatureCollection",
  "features": [
    {
      "type": "Feature",
      "properties": {
        "id": 1789,
        "shape": "Polygon"
      },
      "geometry": {
        "type": "Polygon",
        "coordinates": [
          [
            [
              32.992823,
              40.088029
            ],
            [
              32.995559,
              40.086806
            ],
            [
              32.995076,
              40.086264
            ],
            [
              32.993553,
              40.086953
            ],
            [
              32.992898,
              40.087241
            ],
            [
              32.992415,
              40.087405
            ],
            [
              32.992823,
              40.088029
            ]
          ]
        ]
      }
    },
    {
      "type": "Feature",
      "properties": {
        "id": 1826,
        "shape": "Polygon"
      },
      "geometry": {
        "type": "Polygon",
        "coordinates": [
          [
            [
              32.993209,
              40.08903
            ],
            [
              32.994325,
              40.088661
            ],
            [
              32.995141,
              40.088324
            ],
            [
              32.995816,
              40.087963
            ],
            [
              32.996181,
              40.087791
            ],
            [
              32.995559,
              40.086806
            ],
            [
              32.992823,
              40.088029
            ],
            [
              32.992941,
              40.088464
            ],
            [
              32.993209,
              40.08903
            ]
          ]
        ]
      }
    },
    {
      "type": "Feature",
      "properties": {
        "id": 1959,
        "shape": "Polygon"
      },
      "geometry": {
        "type": "Polygon",
        "coordinates": [
          [
            [
              32.993553,
              40.086953
            ],
            [
              32.992609,
              40.085804
            ],
            [
              32.992619,
              40.085714
            ],
            [
              32.993102,
              40.085394
            ],
            [
              32.99351,
              40.085156
            ],
            [
              32.994068,
              40.08486
            ],
            [
              32.994958,
              40.084474
            ],
            [
              32.995484,
              40.085189
            ],
            [
              32.99469,
              40.085681
            ],
            [
              32.994915,
              40.085993
            ],
            [
              32.995076,
              40.086264
            ],
            [
              32.993553,
              40.086953
            ]
          ]
        ]
      }
    },
    {
      "type": "Feature",
      "properties": {
        "id": 1986,
        "shape": "Polygon"
      },
      "geometry": {
        "type": "Polygon",
        "coordinates": [
          [
            [
              32.995484,
              40.085189
            ],
            [
              32.996482,
              40.086584
            ],
            [
              32.995913,
              40.086978
            ],
            [
              32.995965,
              40.087449
            ],
            [
              32.995076,
              40.086264
            ],
            [
              32.99469,
              40.085681
            ],
            [
              32.995484,
              40.085189
            ]
          ]
        ]
      }
    },
    {
      "type": "Feature",
      "properties": {
        "id": 2017,
        "shape": "Polygon"
      },
      "geometry": {
        "type": "Polygon",
        "coordinates": [
          [
            [
              32.996482,
              40.086584
            ],
            [
              32.997286,
              40.087462
            ],
            [
              32.997812,
              40.088176
            ],
            [
              32.997555,
              40.088406
            ],
            [
              32.997479,
              40.088825
            ],
            [
              32.997018,
              40.088488
            ],
            [
              32.996567,
              40.088152
            ],
            [
              32.996181,
              40.087791
            ],
            [
              32.995968,
              40.087453
            ],
            [
              32.995913,
              40.086978
            ],
            [
              32.996482,
              40.086584
            ]
          ]
        ]
      }
    },
    {
      "type": "Feature",
      "properties": {
        "id": 2044,
        "shape": "Polygon"
      },
      "geometry": {
        "type": "Polygon",
        "coordinates": [
          [
            [
              32.993209,
              40.08903
            ],
            [
              32.993349,
              40.08958
            ],
            [
              32.993488,
              40.090023
            ],
            [
              32.99616,
              40.089859
            ],
            [
              32.996085,
              40.088677
            ],
            [
              32.995816,
              40.087963
            ],
            [
              32.994325,
              40.088661
            ],
            [
              32.993209,
              40.08903
            ]
          ]
        ]
      }
    },
    {
      "type": "Feature",
      "properties": {
        "id": 2074,
        "shape": "Polygon"
      },
      "geometry": {
        "type": "Polygon",
        "coordinates": [
          [
            [
              32.996181,
              40.087791
            ],
            [
              32.995816,
              40.087963
            ],
            [
              32.996085,
              40.088677
            ],
            [
              32.99616,
              40.089859
            ],
            [
              32.996621,
              40.089941
            ],
            [
              32.997061,
              40.089523
            ],
            [
              32.997222,
              40.089211
            ],
            [
              32.997479,
              40.088825
            ],
            [
              32.996181,
              40.087791
            ]
          ]
        ]
      }
    }
  ]
}