{
  "type": "FeatureCollection",
  "features": [
    {
      "type": "Feature",
      "properties": {
        "id": 1789,
        "shape": "Polygon"
      },
      "geometry": {
        "type": "Polygon",
        "coordinates": [
          [
            [
              32.992823,
              40.088029
            ],
            [
              32.995559,
              40.086806
            ],
            [
              32.995076,
              40.086264
            ],
            [
              32.993553,
              40.086953
            ],
            [
              32.992898,
              40.087241
            ],
            [
              32.992415,
              40.087405
            ],
            [
              32.992823,
              40.088029
            ]
          ]
        ]
      }
    }
  ]
}