{
  "type": "FeatureCollection",
  "features": [
    {
      "type": "Feature",
      "properties": {
        "id": 1789,
        "shape": "Polygon"
      },
      "geometry": {
        "type": "Polygon",
        "coordinates": [
          [
            [
              32.992823,
              40.088029
            ],
            [
              32.995559,
              40.086806
            ],
            [
              32.995076,
              40.086264
            ],
            [
              32.993553,
              40.086953
            ],
            [
              32.992898,
              40.087241
            ],
            [
              32.992415,
              40.087405
            ],
            [
              32.992823,
              40.088029
            ]
          ]
        ]
      }
    },
    {
      "type": "Feature",
      "properties": {
        "id": 1826,
        "shape": "Polygon"
      },
      "geometry": {
        "type": "Polygon",
        "coordinates": [
          [
            [
              32.993209,
              40.08903
            ],
            [
              32.994325,
              40.088661
            ],
            [
              32.995141,
              40.088324
            ],
            [
              32.995816,
              40.087963
            ],
            [
              32.996181,
              40.087791
            ],
            [
              32.995559,
              40.086806
            ],
            [
              32.992823,
              40.088029
            ],
            [
              32.992941,
              40.088464
            ],
            [
              32.993209,
              40.08903
            ]
          ]
        ]
      }
    }
  ]
}